GPS BIIR-08             
1 27663U 03005A   26065.41226067  .00000020  00000+0  00000+0 0  9999
2 27663  54.9069 219.0498 0148732  52.7313 318.1949  2.00566200169257
GPS BIIR-11             
1 28190U 04009A   26064.93315625 -.00000023  00000+0  00000+0 0  9999
2 28190  54.9146 279.8578 0111025 169.1048  11.7386  2.00558087160879
GPS BIIR-13             
1 28474U 04045A   26065.34106905 -.00000095  00000+0  00000+0 0  9998
2 28474  55.1936 329.0412 0170812 312.9072 225.9723  2.00573554156362
GPS BIIR-14M            
1 28874U 05038A   26065.65681979 -.00000017  00000+0  00000+0 0  9992
2 28874  54.9613 277.3140 0128744 295.3788  71.8812  2.00572910149783
METEOSAT-9 (MSG-2)      
1 28912U 05049B   26065.59066247  .00000122  00000+0  00000+0 0  9991
2 28912   9.1298  55.1603 0001599 224.1198 143.4443  1.00278557  5973
GPS BIIR-16M            
1 29601U 06052A   26065.20822791  .00000018  00000+0  00000+0 0  9998
2 29601  54.9564 218.0858 0087842  89.3907 271.5694  2.00551801141349
GPS BIIR-17M            
1 32260U 07047A   26065.01635843 -.00000015  00000+0  00000+0 0  9995
2 32260  54.0170  84.3168 0163613  85.9747 275.9459  2.00560687134746
GPS BIIR-18M            
1 32384U 07062A   26065.07949970 -.00000020  00000+0  00000+0 0  9990
2 32384  55.1135 278.2961 0032970 160.6738  12.9295  2.00553677133447
GOES 14                 
1 35491U 09033A   26065.76390990  .00000121  00000+0  00000+0 0  9991
2 35491   1.4253  84.3866 0001768 257.0298 298.4685  1.00100447  5564
GOES 15                 
1 36411U 10008A   26065.80811009  .00000018  00000+0  00000+0 0  9997
2 36411   1.0146  85.1017 0002095  17.7080  56.0929  1.00269857 58619
GSAT0101 (GALILEO-PFM)  
1 37846U 11060A   26053.46432651 -.00000082  00000+0  00000+0 0  9992
2 37846  57.0318 344.8758 0003975 357.0591   2.9533  1.70475478 89166
GSAT0102 (GALILEO-FM2)  
1 37847U 11060B   26060.06318653 -.00000106  00000+0  00000+0 0  9999
2 37847  57.0301 344.6971 0005422 341.2092 154.1953  1.70475778 89286
LUCH 5A                 
1 37951U 11074B   26065.82856353 -.00000049  00000+0  00000+0 0  9999
2 37951   8.4932  75.3103 0003865 248.4746 306.1672  1.00276045 52028
METEOSAT-10 (MSG-3)     
1 38552U 12035B   26065.79554338 -.00000008  00000+0  00000+0 0  9994
2 38552   4.4292  61.4529 0002490 283.3598 106.3340  1.00267966 49834
SARSAT 13 (METOP-B)     
1 38771U 12049A   26065.77017151  .00000169  00000+0  97062-4 0  9993
2 38771  98.6648 119.2501 0001184 281.9884  78.1161 14.21443683698713
GPS BIIF-3              
1 38833U 12053A   26065.11266852  .00000008  00000+0  00000+0 0  9992
2 38833  53.5660 147.8234 0176954  64.7855 297.0886  2.00565873 97370
GSAT0103 (GALILEO-FM3)  
1 38857U 12055A   26064.64990116  .00000009  00000+0  00000+0 0  9995
2 38857  55.7393 104.3859 0005425 285.5287  74.4915  1.70473457 83254
GPS BIIF-4              
1 39166U 13023A   26064.97752527 -.00000015  00000+0  00000+0 0  9991
2 39166  54.5849 273.1765 0141644  49.9392 311.3205  2.00564238 93815
INSAT-3D                
1 39216U 13038B   26065.78864368 -.00000342  00000+0  00000+0 0  9993
2 39216   1.6614  83.8811 0001687 248.1233 245.9026  1.00272492 46055
GPS BIIF-5              
1 39533U 14008A   26065.47472284  .00000007  00000+0  00000+0 0  9998
2 39533  53.6379 153.5106 0082368 228.3720 130.9608  2.00553229 87628
LUCH 5V                 
1 39727U 14023A   26065.60036917 -.00000271  00000+0  00000+0 0  9998
2 39727   4.8804  70.7549 0003084 285.1366 119.2902  1.00271330 43336
GPS BIIF-6              
1 39741U 14026A   26064.75554898 -.00000099  00000+0  00000+0 0  9993
2 39741  56.5458 335.5470 0039849 324.6009  35.1717  2.00568639 86460
GPS BIIF-7              
1 40105U 14045A   26063.84593997  .00000005  00000+0  00000+0 0  9998
2 40105  55.2815  92.6206 0031508 120.4743 239.9033  2.00551558 83989
GSAT0201 (GALILEO 5)    
1 40128U 14050A   26062.23675925 -.00000027  00000+0  00000+0 0  9998
2 40128  48.9889 277.7718 1657553 175.2875 186.5034  1.85520013 76352
GSAT0202 (GALILEO 6)    
1 40129U 14050B   26065.18759423 -.00000036  00000+0  00000+0 0  9992
2 40129  49.0025 276.7356 1658927 176.1364 185.3302  1.85520810 78579
GPS BIIF-8              
1 40294U 14068A   26065.21974178 -.00000078  00000+0  00000+0 0  9990
2 40294  56.9208  34.9218 0062856  68.0586 292.5929  2.00569976 83146
GLONASS-K 2             
1 40315U 14075A   26060.84023701 -.00000015  00000+0  00000+0 0  9994
2 40315  63.6170 194.0851 0020735 205.7160 154.1408  2.13101099 87569
GPS BIIF-9              
1 40534U 15013A   26065.35117279  .00000016  00000+0  00000+0 0  9995
2 40534  53.1859 208.4290 0108755  39.8054 320.9401  2.00557521 79764
GSAT0203 (GALILEO 7)    
1 40544U 15017A   26058.52158611 -.00000103  00000+0  00000+0 0  9994
2 40544  56.8234 344.5881 0005161 295.0116  64.9415  1.70475495 67337
GSAT0204 (GALILEO 8)    
1 40545U 15017B   26058.19060141 -.00000102  00000+0  00000+0 0  9997
2 40545  56.8295 344.6151 0004389 286.3298  73.6287  1.70475370 30371
GPS BIIF-10             
1 40730U 15033A   26065.51165918 -.00000012  00000+0  00000+0 0  9993
2 40730  54.0631 271.3180 0114550  29.0223 331.6302  2.00561568 77938
METEOSAT-11 (MSG-4)     
1 40732U 15034A   26065.79736338  .00000059  00000+0  00000+0 0  9996
2 40732   2.9437  71.6666 0001807 271.0228 118.2219  1.00266852  6193
GSAT0205 (GALILEO 9)    
1 40889U 15045A   26043.95434207  .00000078  00000+0  00000+0 0  9996
2 40889  53.6403 225.6057 0359599  59.9658 303.5577  1.67410800 64211
GSAT0206 (GALILEO 10)   
1 40890U 15045B   26065.21845735  .00000020  00000+0  00000+0 0  9990
2 40890  54.9806 224.4444 0003724  50.3393 309.6334  1.70473773 65286
GPS BIIF-11             
1 41019U 15062A   26065.57045984 -.00000077  00000+0  00000+0 0  9993
2 41019  56.8944  34.7646 0111446 231.5122 127.4715  2.00567146 75770
ELEKTRO-L 2             
1 41105U 15074A   26065.86390215 -.00000119  00000+0  00000+0 0  9991
2 41105   6.4373  71.7830 0003279 242.4752 146.8105  1.00271066 37489
GSAT0209 (GALILEO 12)   
1 41174U 15079A   26064.80003714  .00000008  00000+0  00000+0 0  9996
2 41174  55.7602 104.0969 0004738 323.5937  36.4535  1.70474567 63014
GSAT0208 (GALILEO 11)   
1 41175U 15079B   26062.08735472  .00000015  00000+0  00000+0 0  9996
2 41175  55.7569 104.1685 0004163 323.7694  36.2890  1.70474318 63383
GPS BIIF-12             
1 41328U 16007A   26065.15731679 -.00000004  00000+0  00000+0 0  9993
2 41328  55.4568  93.5431 0095487 246.0433 113.0135  2.00556703 73779
GSAT0211 (GALILEO 14)   
1 41549U 16030A   26064.55763471  .00000016  00000+0  00000+0 0  9994
2 41549  55.1310 224.5419 0003581  25.3389 334.6168  1.70473873 60900
GSAT0210 (GALILEO 13)   
1 41550U 16030B   26064.81491220  .00000018  00000+0  00000+0 0  9997
2 41550  55.1283 224.5329 0001200 195.2538 164.6814  1.70473987 60905
INSAT-3DR               
1 41752U 16054A   26065.54364230 -.00000081  00000+0  00000+0 0  9999
2 41752   0.0528  95.2916 0013059 186.8450 151.8186  1.00272687 34783
GSAT0207 (GALILEO 15)   
1 41859U 16069A   26059.22748061  .00000008  00000+0  00000+0 0  9997
2 41859  55.4267 104.1007 0005031 309.1503  50.8842  1.70474383 57546
GSAT0212 (GALILEO 16)   
1 41860U 16069B   26064.94685676  .00000007  00000+0  00000+0 0  9995
2 41860  55.4278 103.9372 0003643 335.6888  24.3725  1.70474702 57898
GSAT0213 (GALILEO 17)   
1 41861U 16069C   26064.72771558  .00000008  00000+0  00000+0 0  9998
2 41861  55.4302 103.9512 0005295 293.0089  67.0145  1.70474927 57752
GSAT0214 (GALILEO 18)   
1 41862U 16069D   26065.46034919  .00000006  00000+0  00000+0 0  9992
2 41862  55.4293 103.9236 0004341 297.3479  62.6840  1.70474815 57890
GOES 16                 
1 41866U 16071A   26065.56084899 -.00000095  00000+0  00000+0 0  9991
2 41866   0.1362  89.1476 0002391 221.4894 310.8421  1.00271524 34074
GSAT-17                 
1 42815U 17040B   26064.31634419 -.00000266  00000+0  00000+0 0  9994
2 42815   0.0381 296.1388 0004948 351.8585  82.4276  1.00269840 31745
GSAT0215 (GALILEO 19)   
1 43055U 17079A   26062.43085966  .00000010  00000+0  00000+0 0  9997
2 43055  55.1080 224.4135 0000631  13.1955 346.7446  1.70474475 51181
GSAT0216 (GALILEO 20)   
1 43056U 17079B   26063.89524153  .00000013  00000+0  00000+0 0  9998
2 43056  55.1080 224.3734 0001703 320.6652  39.2594  1.70474648 51222
GSAT0217 (GALILEO 21)   
1 43057U 17079C   26065.28916355  .00000020  00000+0  00000+0 0  9991
2 43057  55.1073 224.3328 0002074 355.7864   4.1520  1.70474591 51238
GSAT0218 (GALILEO 22)   
1 43058U 17079D   26063.74946031  .00000013  00000+0  00000+0 0  9997
2 43058  55.1048 224.3730 0001921 303.9467  55.9718  1.70474529 51236
GOES 17                 
1 43226U 18022A   26065.56388235 -.00000186  00000+0  00000+0 0  9993
2 43226   0.6735  87.5071 0002128 225.3094 324.9405  1.00270160 29393
GSAT0221 (GALILEO 25)   
1 43564U 18060A   26059.54670036 -.00000105  00000+0  00000+0 0  9995
2 43564  57.2051 344.7173 0005804 306.7848  53.1689  1.70475369 47315
GSAT0222 (GALILEO 26)   
1 43565U 18060B   26055.66007047 -.00000092  00000+0  00000+0 0  9996
2 43565  57.2093 344.8256 0004435 285.4820  74.4799  1.70474973 47292
GSAT0219 (GALILEO 23)   
1 43566U 18060C   26065.26653775 -.00000104  00000+0  00000+0 0  9993
2 43566  57.2056 344.5677 0004933 321.2111  38.7755  1.70475265 47437
GSAT0220 (GALILEO 24)   
1 43567U 18060D   26058.44840234 -.00000102  00000+0  00000+0 0  9992
2 43567  57.2075 344.7516 0005301 308.5821  51.3768  1.70475159 47302
BEIDOU-3 M13            
1 43622U 18072A   26063.82956810 -.00000029  00000+0  00000+0 0  9991
2 43622  56.5333  66.1018 0008916 307.8246  52.1164  1.86230808 50718
BEIDOU-3 M14            
1 43623U 18072B   26063.69502611 -.00000028  00000+0  00000+0 0  9992
2 43623  56.5350  66.1003 0006376 328.8150  31.1695  1.86230841 50709
